ORBCOMM FM05            
1 25117U 97084F   24244.52188943  .00005148  00000+0  15486-2 0  9993
2 25117  45.0156 316.5963 0004272 235.0633 124.9816 14.43485051398713
ORBCOMM FM06            
1 25118U 97084G   24244.57275635  .00005886  00000+0  17606-2 0  9999
2 25118  45.0151 316.4440 0003837 247.2344 263.4137 14.43590955399657
ORBCOMM FM07            
1 25119U 97084H   24244.47328263  .00007917  00000+0  23575-2 0  9994
2 25119  45.0146 317.5345 0004667 225.3776 134.6694 14.43495213399610
ORBCOMM FM03            
1 25158U 98007B   24244.86240819  .00003673  00000+0  13770-2 0  9997
2 25158 107.9738 261.8765 0045709  32.5958 327.7988 14.32765341382711
ORBCOMM FM04            
1 25159U 98007C   24243.99214281  .00004018  00000+0  14972-2 0  9994
2 25159 107.9721 263.1098 0041328  31.5129 328.8473 14.33028139382629
ORBCOMM FM17            
1 25413U 98046A   24244.54339348  .00003651  00000+0  13557-2 0  9994
2 25413  44.9933 183.2544 0001611 249.5873 110.4801 14.33615924361589
ORBCOMM FM18            
1 25414U 98046B   24244.59247328  .00003929  00000+0  13723-2 0  9999
2 25414  44.9925 107.6480 0003578 260.0550  99.9893 14.36547618362573
ORBCOMM FM19            
1 25415U 98046C   24243.94846812  .00004037  00000+0  14137-2 0  9992
2 25415  44.9940 112.2589 0002422 249.5963 124.5175 14.36375051362646
