<?xml version="1.0" encoding="UTF-8"?>
<ndm xmlns:xsi="http://www.w3.org/2001/XMLSchema-instance" xsi:noNamespaceSchemaLocation="https://sanaregistry.org/r/ndmxml_unqualified/ndmxml-2.0.0-master-2.0.xsd">
<omm id="CCSDS_OMM_VERS" version="2.0">
<header><CREATION_DATE/><ORIGINATOR/></header><body><segment><metadata><OBJECT_NAME>ORBCOMM FM05</OBJECT_NAME><OBJECT_ID>1997-084F</OBJECT_ID><CENTER_NAME>EARTH</CENTER_NAME><REF_FRAME>TEME</REF_FRAME><TIME_SYSTEM>UTC</TIME_SYSTEM><MEAN_ELEMENT_THEORY>SGP4</MEAN_ELEMENT_THEORY></metadata><data><meanElements><EPOCH>2024-08-31T12:31:31.246752</EPOCH><MEAN_MOTION>14.43485051</MEAN_MOTION><ECCENTRICITY>.0004272</ECCENTRICITY><INCLINATION>45.0156</INCLINATION><RA_OF_ASC_NODE>316.5963</RA_OF_ASC_NODE><ARG_OF_PERICENTER>235.0633</ARG_OF_PERICENTER><MEAN_ANOMALY>124.9816</MEAN_ANOMALY></meanElements><tleParameters><EPHEMERIS_TYPE>0</EPHEMERIS_TYPE><CLASSIFICATION_TYPE>U</CLASSIFICATION_TYPE><NORAD_CAT_ID>25117</NORAD_CAT_ID><ELEMENT_SET_NO>999</ELEMENT_SET_NO><REV_AT_EPOCH>39871</REV_AT_EPOCH><BSTAR>.15486E-2</BSTAR><MEAN_MOTION_DOT>.5148E-4</MEAN_MOTION_DOT><MEAN_MOTION_DDOT>0</MEAN_MOTION_DDOT></tleParameters></data></segment></body></omm>
<omm id="CCSDS_OMM_VERS" version="2.0">
<header><CREATION_DATE/><ORIGINATOR/></header><body><segment><metadata><OBJECT_NAME>ORBCOMM FM06</OBJECT_NAME><OBJECT_ID>1997-084G</OBJECT_ID><CENTER_NAME>EARTH</CENTER_NAME><REF_FRAME>TEME</REF_FRAME><TIME_SYSTEM>UTC</TIME_SYSTEM><MEAN_ELEMENT_THEORY>SGP4</MEAN_ELEMENT_THEORY></metadata><data><meanElements><EPOCH>2024-08-31T13:44:46.148640</EPOCH><MEAN_MOTION>14.43590955</MEAN_MOTION><ECCENTRICITY>.0003837</ECCENTRICITY><INCLINATION>45.0151</INCLINATION><RA_OF_ASC_NODE>316.4440</RA_OF_ASC_NODE><ARG_OF_PERICENTER>247.2344</ARG_OF_PERICENTER><MEAN_ANOMALY>263.4137</MEAN_ANOMALY></meanElements><tleParameters><EPHEMERIS_TYPE>0</EPHEMERIS_TYPE><CLASSIFICATION_TYPE>U</CLASSIFICATION_TYPE><NORAD_CAT_ID>25118</NORAD_CAT_ID><ELEMENT_SET_NO>999</ELEMENT_SET_NO><REV_AT_EPOCH>39965</REV_AT_EPOCH><BSTAR>.17606E-2</BSTAR><MEAN_MOTION_DOT>.5886E-4</MEAN_MOTION_DOT><MEAN_MOTION_DDOT>0</MEAN_MOTION_DDOT></tleParameters></data></segment></body></omm>
<omm id="CCSDS_OMM_VERS" version="2.0">
<header><CREATION_DATE/><ORIGINATOR/></header><body><segment><metadata><OBJECT_NAME>ORBCOMM FM07</OBJECT_NAME><OBJECT_ID>1997-084H</OBJECT_ID><CENTER_NAME>EARTH</CENTER_NAME><REF_FRAME>TEME</REF_FRAME><TIME_SYSTEM>UTC</TIME_SYSTEM><MEAN_ELEMENT_THEORY>SGP4</MEAN_ELEMENT_THEORY></metadata><data><meanElements><EPOCH>2024-08-31T11:21:31.619232</EPOCH><MEAN_MOTION>14.43495213</MEAN_MOTION><ECCENTRICITY>.0004667</ECCENTRICITY><INCLINATION>45.0146</INCLINATION><RA_OF_ASC_NODE>317.5345</RA_OF_ASC_NODE><ARG_OF_PERICENTER>225.3776</ARG_OF_PERICENTER><MEAN_ANOMALY>134.6694</MEAN_ANOMALY></meanElements><tleParameters><EPHEMERIS_TYPE>0</EPHEMERIS_TYPE><CLASSIFICATION_TYPE>U</CLASSIFICATION_TYPE><NORAD_CAT_ID>25119</NORAD_CAT_ID><ELEMENT_SET_NO>999</ELEMENT_SET_NO><REV_AT_EPOCH>39961</REV_AT_EPOCH><BSTAR>.23575E-2</BSTAR><MEAN_MOTION_DOT>.7917E-4</MEAN_MOTION_DOT><MEAN_MOTION_DDOT>0</MEAN_MOTION_DDOT></tleParameters></data></segment></body></omm>
<omm id="CCSDS_OMM_VERS" version="2.0">
<header><CREATION_DATE/><ORIGINATOR/></header><body><segment><metadata><OBJECT_NAME>ORBCOMM FM03</OBJECT_NAME><OBJECT_ID>1998-007B</OBJECT_ID><CENTER_NAME>EARTH</CENTER_NAME><REF_FRAME>TEME</REF_FRAME><TIME_SYSTEM>UTC</TIME_SYSTEM><MEAN_ELEMENT_THEORY>SGP4</MEAN_ELEMENT_THEORY></metadata><data><meanElements><EPOCH>2024-08-31T20:41:52.067616</EPOCH><MEAN_MOTION>14.32765341</MEAN_MOTION><ECCENTRICITY>.0045709</ECCENTRICITY><INCLINATION>107.9738</INCLINATION><RA_OF_ASC_NODE>261.8765</RA_OF_ASC_NODE><ARG_OF_PERICENTER>32.5958</ARG_OF_PERICENTER><MEAN_ANOMALY>327.7988</MEAN_ANOMALY></meanElements><tleParameters><EPHEMERIS_TYPE>0</EPHEMERIS_TYPE><CLASSIFICATION_TYPE>U</CLASSIFICATION_TYPE><NORAD_CAT_ID>25158</NORAD_CAT_ID><ELEMENT_SET_NO>999</ELEMENT_SET_NO><REV_AT_EPOCH>38271</REV_AT_EPOCH><BSTAR>.1377E-2</BSTAR><MEAN_MOTION_DOT>.3673E-4</MEAN_MOTION_DOT><MEAN_MOTION_DDOT>0</MEAN_MOTION_DDOT></tleParameters></data></segment></body></omm>
<omm id="CCSDS_OMM_VERS" version="2.0">
<header><CREATION_DATE/><ORIGINATOR/></header><body><segment><metadata><OBJECT_NAME>ORBCOMM FM04</OBJECT_NAME><OBJECT_ID>1998-007C</OBJECT_ID><CENTER_NAME>EARTH</CENTER_NAME><REF_FRAME>TEME</REF_FRAME><TIME_SYSTEM>UTC</TIME_SYSTEM><MEAN_ELEMENT_THEORY>SGP4</MEAN_ELEMENT_THEORY></metadata><data><meanElements><EPOCH>2024-08-30T23:48:41.138784</EPOCH><MEAN_MOTION>14.33028139</MEAN_MOTION><ECCENTRICITY>.0041328</ECCENTRICITY><INCLINATION>107.9721</INCLINATION><RA_OF_ASC_NODE>263.1098</RA_OF_ASC_NODE><ARG_OF_PERICENTER>31.5129</ARG_OF_PERICENTER><MEAN_ANOMALY>328.8473</MEAN_ANOMALY></meanElements><tleParameters><EPHEMERIS_TYPE>0</EPHEMERIS_TYPE><CLASSIFICATION_TYPE>U</CLASSIFICATION_TYPE><NORAD_CAT_ID>25159</NORAD_CAT_ID><ELEMENT_SET_NO>999</ELEMENT_SET_NO><REV_AT_EPOCH>38262</REV_AT_EPOCH><BSTAR>.14972E-2</BSTAR><MEAN_MOTION_DOT>.4018E-4</MEAN_MOTION_DOT><MEAN_MOTION_DDOT>0</MEAN_MOTION_DDOT></tleParameters></data></segment></body></omm>
<omm id="CCSDS_OMM_VERS" version="2.0">
<header><CREATION_DATE/><ORIGINATOR/></header><body><segment><metadata><OBJECT_NAME>ORBCOMM FM17</OBJECT_NAME><OBJECT_ID>1998-046A</OBJECT_ID><CENTER_NAME>EARTH</CENTER_NAME><REF_FRAME>TEME</REF_FRAME><TIME_SYSTEM>UTC</TIME_SYSTEM><MEAN_ELEMENT_THEORY>SGP4</MEAN_ELEMENT_THEORY></metadata><data><meanElements><EPOCH>2024-08-31T13:02:29.196672</EPOCH><MEAN_MOTION>14.33615924</MEAN_MOTION><ECCENTRICITY>.0001611</ECCENTRICITY><INCLINATION>44.9933</INCLINATION><RA_OF_ASC_NODE>183.2544</RA_OF_ASC_NODE><ARG_OF_PERICENTER>249.5873</ARG_OF_PERICENTER><MEAN_ANOMALY>110.4801</MEAN_ANOMALY></meanElements><tleParameters><EPHEMERIS_TYPE>0</EPHEMERIS_TYPE><CLASSIFICATION_TYPE>U</CLASSIFICATION_TYPE><NORAD_CAT_ID>25413</NORAD_CAT_ID><ELEMENT_SET_NO>999</ELEMENT_SET_NO><REV_AT_EPOCH>36158</REV_AT_EPOCH><BSTAR>.13557E-2</BSTAR><MEAN_MOTION_DOT>.3651E-4</MEAN_MOTION_DOT><MEAN_MOTION_DDOT>0</MEAN_MOTION_DDOT></tleParameters></data></segment></body></omm>
<omm id="CCSDS_OMM_VERS" version="2.0">
<header><CREATION_DATE/><ORIGINATOR/></header><body><segment><metadata><OBJECT_NAME>ORBCOMM FM18</OBJECT_NAME><OBJECT_ID>1998-046B</OBJECT_ID><CENTER_NAME>EARTH</CENTER_NAME><REF_FRAME>TEME</REF_FRAME><TIME_SYSTEM>UTC</TIME_SYSTEM><MEAN_ELEMENT_THEORY>SGP4</MEAN_ELEMENT_THEORY></metadata><data><meanElements><EPOCH>2024-08-31T14:13:09.691392</EPOCH><MEAN_MOTION>14.36547618</MEAN_MOTION><ECCENTRICITY>.0003578</ECCENTRICITY><INCLINATION>44.9925</INCLINATION><RA_OF_ASC_NODE>107.6480</RA_OF_ASC_NODE><ARG_OF_PERICENTER>260.0550</ARG_OF_PERICENTER><MEAN_ANOMALY>99.9893</MEAN_ANOMALY></meanElements><tleParameters><EPHEMERIS_TYPE>0</EPHEMERIS_TYPE><CLASSIFICATION_TYPE>U</CLASSIFICATION_TYPE><NORAD_CAT_ID>25414</NORAD_CAT_ID><ELEMENT_SET_NO>999</ELEMENT_SET_NO><REV_AT_EPOCH>36257</REV_AT_EPOCH><BSTAR>.13723E-2</BSTAR><MEAN_MOTION_DOT>.3929E-4</MEAN_MOTION_DOT><MEAN_MOTION_DDOT>0</MEAN_MOTION_DDOT></tleParameters></data></segment></body></omm>
<omm id="CCSDS_OMM_VERS" version="2.0">
<header><CREATION_DATE/><ORIGINATOR/></header><body><segment><metadata><OBJECT_NAME>ORBCOMM FM19</OBJECT_NAME><OBJECT_ID>1998-046C</OBJECT_ID><CENTER_NAME>EARTH</CENTER_NAME><REF_FRAME>TEME</REF_FRAME><TIME_SYSTEM>UTC</TIME_SYSTEM><MEAN_ELEMENT_THEORY>SGP4</MEAN_ELEMENT_THEORY></metadata><data><meanElements><EPOCH>2024-08-30T22:45:47.645568</EPOCH><MEAN_MOTION>14.36375051</MEAN_MOTION><ECCENTRICITY>.0002422</ECCENTRICITY><INCLINATION>44.9940</INCLINATION><RA_OF_ASC_NODE>112.2589</RA_OF_ASC_NODE><ARG_OF_PERICENTER>249.5963</ARG_OF_PERICENTER><MEAN_ANOMALY>124.5175</MEAN_ANOMALY></meanElements><tleParameters><EPHEMERIS_TYPE>0</EPHEMERIS_TYPE><CLASSIFICATION_TYPE>U</CLASSIFICATION_TYPE><NORAD_CAT_ID>25415</NORAD_CAT_ID><ELEMENT_SET_NO>999</ELEMENT_SET_NO><REV_AT_EPOCH>36264</REV_AT_EPOCH><BSTAR>.14137E-2</BSTAR><MEAN_MOTION_DOT>.4037E-4</MEAN_MOTION_DOT><MEAN_MOTION_DDOT>0</MEAN_MOTION_DDOT></tleParameters></data></segment></body></omm>

</ndm>
